ONEWEB-0563             
1 55800U 23029E   26198.14179885  .00000103  00000+0  22152-3 0  9991
2 55800  87.9173 268.5083 0002172 104.2869 255.8505 13.20770486165098
ONEWEB-0564             
1 55801U 23029F   26198.43809913  .00000064  00000+0  12505-3 0  9993
2 55801  87.9175 268.4233 0001745  91.8754 268.2579 13.20772928165144
ONEWEB-0638             
1 55802U 23029G   26198.68794808  .00000229  00000+0  58241-3 0  9997
2 55802  87.8955 283.6721 0001477 104.6019 255.5275 13.14504402163402
ONEWEB-0639             
1 55803U 23029H   26198.20698315  .00000067  00000+0  13622-3 0  9996
2 55803  87.9187 298.9981 0002691 118.3792 241.7613 13.19726840162866
ONEWEB-0640             
1 55804U 23029J   26197.78405342 -.00000005  00000+0 -49042-4 0  9995
2 55804  87.8960 283.8432 0001637 118.1769 241.9527 13.14502179163308
ONEWEB-0641             
1 55805U 23029K   26197.82318147 -.00000783  00000+0 -19894-2 0  9990
2 55805  87.9193 299.0658 0002058 103.6810 256.4552 13.19718229162826
ONEWEB-0642             
1 55806U 23029L   26198.27334047  .00000029  00000+0  39651-4 0  9994
2 55806  87.9188 298.9859 0002690 110.4334 249.7088 13.19726558162879
ONEWEB-0643             
1 55807U 23029M   26198.66734076 -.00000015  00000+0 -74871-4 0  9994
2 55807  87.8955 283.6544 0002700 105.3040 254.8388 13.14502768163390
ONEWEB-0644             
1 55808U 23029N   26197.81370375 -.00000010  00000+0 -58234-4 0  9999
2 55808  87.9183 299.0786 0002307 105.5106 254.6282 13.19726137162812
ONEWEB-0645             
1 55809U 23029P   26198.51816615  .00000066  00000+0  13297-3 0  9998
2 55809  87.9187 298.9350 0002111 114.5987 245.5366 13.19726017162901
ONEWEB-0646             
1 55810U 23029Q   26198.53552959  .00000104  00000+0  22763-3 0  9991
2 55810  87.9186 298.9323 0002293 104.1967 255.9420 13.19727476162890
ONEWEB-0648             
1 55811U 23029R   26198.71173502 -.00000096  00000+0 -29220-3 0  9992
2 55811  87.8969 283.6218 0002488 121.7827 238.3545 13.14503187163406
ONEWEB-0649             
1 55812U 23029S   26198.71243015 -.00000003  00000+0 -39511-4 0  9993
2 55812  87.9187 298.8950 0002092 108.7802 251.3558 13.19726672162959
ONEWEB-0650             
1 55813U 23029T   26198.55606381  .00000066  00000+0  13271-3 0  9996
2 55813  87.9184 298.9283 0002544 110.4363 249.7043 13.19726263162902
ONEWEB-0652             
1 55814U 23029U   26198.15988522  .00000227  00000+0  57887-3 0  9993
2 55814  87.8968 283.7387 0001991  94.9032 265.2325 13.14502774163308
ONEWEB-0653             
1 55815U 23029V   26198.67684946  .00000146  00000+0  36025-3 0  9995
2 55815  87.8967 283.6341 0001944  99.6258 260.5091 13.14502181163408
ONEWEB-0654             
1 55816U 23029W   26198.67209005  .00000094  00000+0  21962-3 0  9991
2 55816  87.8965 283.6309 0001791  92.1463 267.9872 13.14502274163420
ONEWEB-0656             
1 55817U 23029X   26198.12833347  .00000066  00000+0  13115-3 0  9994
2 55817  87.9187 268.4643 0001838  87.2581 272.8763 13.20770342165109
ONEWEB-0657             
1 55818U 23029Y   26198.55135258  .00000082  00000+0  17264-3 0  9995
2 55818  87.9183 298.9278 0002152  78.8866 281.2509 13.19727071162917
ONEWEB-0658             
1 55819U 23029Z   26198.54659875  .00000077  00000+0  15939-3 0  9992
2 55819  87.9193 298.9071 0002390 106.4807 253.6588 13.19726336162921
ONEWEB-0660             
1 55820U 23029AA  26198.49765140 -.00000160  00000+0 -46498-3 0  9990
2 55820  87.8975 283.6616 0002001 109.0536 251.0810 13.14502362163380
ONEWEB-0661             
1 55821U 23029AB  26198.68478455  .00000209  00000+0  53015-3 0  9997
2 55821  87.8956 283.6640 0001851 107.6414 252.4918 13.14502726163397
ONEWEB-0662             
1 55822U 23029AC  26198.18684593 -.00000187  00000+0 -53831-3 0  9998
2 55822  87.8959 283.7686 0001959 107.9842 252.1502 13.14502309163370
ONEWEB-0663             
1 55823U 23029AD  26198.61430498  .00000051  00000+0  94566-4 0  9999
2 55823  87.9185 268.4384 0002221 109.6423 250.4950 13.20871507165168
ONEWEB-0664             
1 55824U 23029AE  26198.64517374 -.00000053  00000+0 -16236-3 0  9993
2 55824  87.9172 268.4102 0001613 104.2354 255.8959 13.20772167165161
ONEWEB-0665             
1 55825U 23029AF  26198.68161440  .00000176  00000+0  43938-3 0  9990
2 55825  87.8956 283.6455 0002069 109.4476 250.6877 13.14502570163419
ONEWEB-0666             
1 55826U 23029AG  26198.63841794 -.00000058  00000+0 -17564-3 0  9990
2 55826  87.9173 268.4016 0002439  83.0148 277.1263 13.20773279165171
ONEWEB-0667             
1 55827U 23029AH  26198.63336598 -.00000011  00000+0 -58290-4 0  9993
2 55827  87.9187 268.3652 0002000 103.5467 256.5889 13.20773429165169
ONEWEB-0669             
1 55828U 23029AJ  26198.47680737  .00000058  00000+0  11164-3 0  9990
2 55828  87.9184 268.4054 0001625  87.6119 272.5200 13.20769947165145
ONEWEB-0670             
1 55829U 23029AK  26198.65941288 -.00000177  00000+0 -51129-3 0  9991
2 55829  87.8954 283.6666 0001692 107.8593 252.2722 13.14501783163432
