OBJECT_NAME,OBJECT_ID,EPOCH,MEAN_MOTION,ECCENTRICITY,INCLINATION,RA_OF_ASC_NODE,ARG_OF_PERICENTER,MEAN_ANOMALY,EPHEMERIS_TYPE,CLASSIFICATION_TYPE,NORAD_CAT_ID,ELEMENT_SET_NO,REV_AT_EPOCH,BSTAR,MEAN_MOTION_DOT,MEAN_MOTION_DDOT
ONEWEB-0563,2023-029E,2026-07-17T03:24:11.420640,13.20770486,.00021724,87.9173,268.5083,104.2869,255.8505,0,U,55800,999,16509,.22152244E-3,.103E-5,0
ONEWEB-0564,2023-029F,2026-07-17T10:30:51.764832,13.20772928,.0001745,87.9175,268.4233,91.8754,268.2579,0,U,55801,999,16514,.12505E-3,.64E-6,0
ONEWEB-0638,2023-029G,2026-07-17T16:30:38.714112,13.14504402,.0001477,87.8955,283.6721,104.6019,255.5275,0,U,55802,999,16340,.58241E-3,.229E-5,0
ONEWEB-0639,2023-029H,2026-07-17T04:58:03.344160,13.19726840,.00026911,87.9187,298.9981,118.3792,241.7613,0,U,55803,999,16286,.13621657E-3,.67E-6,0
ONEWEB-0640,2023-029J,2026-07-16T18:49:02.215488,13.14502179,.00016375,87.8960,283.8432,118.1769,241.9527,0,U,55804,999,16330,-.49042313E-4,-.5E-7,0
ONEWEB-0641,2023-029K,2026-07-16T19:45:22.879008,13.19718229,.00020586,87.9193,299.0658,103.6810,256.4552,0,U,55805,999,16282,-.19893574E-2,-.783E-5,0
ONEWEB-0642,2023-029L,2026-07-17T06:33:36.616608,13.19726558,.000269,87.9188,298.9859,110.4334,249.7088,0,U,55806,999,16287,.39651E-4,.29E-6,0
ONEWEB-0643,2023-029M,2026-07-17T16:00:58.241664,13.14502768,.00027,87.8955,283.6544,105.3040,254.8388,0,U,55807,999,16339,-.74871E-4,-.15E-6,0
ONEWEB-0644,2023-029N,2026-07-16T19:31:44.004000,13.19726137,.00023077,87.9183,299.0786,105.5106,254.6282,0,U,55808,999,16281,-.58234395E-4,-.1E-6,0
ONEWEB-0645,2023-029P,2026-07-17T12:26:09.555360,13.19726017,.0002111,87.9187,298.9350,114.5987,245.5366,0,U,55809,999,16290,.13297E-3,.66E-6,0
ONEWEB-0646,2023-029Q,2026-07-17T12:51:09.756576,13.19727476,.0002293,87.9186,298.9323,104.1967,255.9420,0,U,55810,999,16289,.22763E-3,.104E-5,0
ONEWEB-0648,2023-029R,2026-07-17T17:04:53.905728,13.14503187,.0002488,87.8969,283.6218,121.7827,238.3545,0,U,55811,999,16340,-.2922E-3,-.96E-6,0
ONEWEB-0649,2023-029S,2026-07-17T17:05:53.964960,13.19726672,.0002092,87.9187,298.8950,108.7802,251.3558,0,U,55812,999,16295,-.39511E-4,-.3E-7,0
ONEWEB-0650,2023-029T,2026-07-17T13:20:43.913184,13.19726263,.0002544,87.9184,298.9283,110.4363,249.7043,0,U,55813,999,16290,.13271E-3,.66E-6,0
ONEWEB-0652,2023-029U,2026-07-17T03:50:14.083008,13.14502774,.00019917,87.8968,283.7387,94.9032,265.2325,0,U,55814,999,16330,.57886734E-3,.227E-5,0
ONEWEB-0653,2023-029V,2026-07-17T16:14:39.793344,13.14502181,.0001944,87.8967,283.6341,99.6258,260.5091,0,U,55815,999,16340,.36025E-3,.146E-5,0
ONEWEB-0654,2023-029W,2026-07-17T16:07:48.580320,13.14502274,.0001791,87.8965,283.6309,92.1463,267.9872,0,U,55816,999,16342,.21962E-3,.94E-6,0
ONEWEB-0656,2023-029X,2026-07-17T03:04:48.011808,13.20770342,.00018386,87.9187,268.4643,87.2581,272.8763,0,U,55817,999,16510,.13115048E-3,.66E-6,0
ONEWEB-0657,2023-029Y,2026-07-17T13:13:56.862912,13.19727071,.0002152,87.9183,298.9278,78.8866,281.2509,0,U,55818,999,16291,.17264E-3,.82E-6,0
ONEWEB-0658,2023-029Z,2026-07-17T13:07:06.132000,13.19726336,.000239,87.9193,298.9071,106.4807,253.6588,0,U,55819,999,16292,.15939E-3,.77E-6,0
ONEWEB-0660,2023-029AA,2026-07-17T11:56:37.080960,13.14502362,.0002001,87.8975,283.6616,109.0536,251.0810,0,U,55820,999,16338,-.46498E-3,-.16E-5,0
ONEWEB-0661,2023-029AB,2026-07-17T16:26:05.385120,13.14502726,.0001851,87.8956,283.6640,107.6414,252.4918,0,U,55821,999,16339,.53015E-3,.209E-5,0
ONEWEB-0662,2023-029AC,2026-07-17T04:29:03.488352,13.14502309,.00019599,87.8959,283.7686,107.9842,252.1502,0,U,55822,999,16337,-.53830892E-3,-.187E-5,0
ONEWEB-0663,2023-029AD,2026-07-17T14:44:35.950272,13.20871507,.0002221,87.9185,268.4384,109.6423,250.4950,0,U,55823,999,16516,.94566E-4,.51E-6,0
ONEWEB-0664,2023-029AE,2026-07-17T15:29:03.011136,13.20772167,.0001613,87.9172,268.4102,104.2354,255.8959,0,U,55824,999,16516,-.16236E-3,-.53E-6,0
ONEWEB-0665,2023-029AF,2026-07-17T16:21:31.484160,13.14502570,.0002069,87.8956,283.6455,109.4476,250.6877,0,U,55825,999,16341,.43938E-3,.176E-5,0
ONEWEB-0666,2023-029AG,2026-07-17T15:19:19.310016,13.20773279,.0002439,87.9173,268.4016,83.0148,277.1263,0,U,55826,999,16517,-.17564E-3,-.58E-6,0
ONEWEB-0667,2023-029AH,2026-07-17T15:12:02.820672,13.20773429,.0002,87.9187,268.3652,103.5467,256.5889,0,U,55827,999,16516,-.5829E-4,-.11E-6,0
ONEWEB-0669,2023-029AJ,2026-07-17T11:26:36.156768,13.20769947,.0001625,87.9184,268.4054,87.6119,272.5200,0,U,55828,999,16514,.11164E-3,.58E-6,0
ONEWEB-0670,2023-029AK,2026-07-17T15:49:33.272832,13.14501783,.0001692,87.8954,283.6666,107.8593,252.2722,0,U,55829,999,16343,-.51129E-3,-.177E-5,0
